NORAD_CAT_ID,OBJECT_NAME,OBJECT_TYPE,EPOCH,MEAN_MOTION,ECCENTRICITY,INCLINATION,RA_OF_ASC_NODE,ARG_OF_PERICENTER,MEAN_ANOMALY,BSTAR,MEAN_MOTION_DOT,MEAN_MOTION_DDOT,TLE_LINE0,TLE_LINE1,TLE_LINE2,SEMIMAJOR_AXIS,PERIOD,APOGEE,PERIGEE,DECAYED
53246.0,STARLINK-4131,PAYLOAD,2024-04-23 04:18:00,15.08864691,7.55e-05,53.2177,41.4945,106.6975,253.41,0.0020504,0.00032517,0.0,0 STARLINK-4131,1 53246U 22086E   24114.17916821  .00032517  00000-0  20504-2 0  9996,2 53246  53.2177  41.4945 0000755 106.6975 253.4100 15.08864691 97251,6917.805,95.436,540.192,539.148,0.0
53246.0,STARLINK-4131,PAYLOAD,2024-04-24 02:33:24,15.08859541,0.0001716,53.2195,37.3305,66.796,293.3213,0.001488,0.00023486,0.0,0 STARLINK-4131,1 53246U 22086E   24115.10653416  .00023486  00000-0  14880-2 0  9993,2 53246  53.2195  37.3305 0001716  66.7960 293.3213 15.08859541 97394,6917.821,95.436,540.873,538.499,0.0
53246.0,STARLINK-4131,PAYLOAD,2024-04-25 00:48:48,15.08857272,0.0001244,53.2181,33.1712,78.5319,281.5813,0.0015568,0.00024587,0.0,0 STARLINK-4131,1 53246U 22086E   24116.03389364  .00024587  00000-0  15568-2 0  9991,2 53246  53.2181  33.1712 0001244  78.5319 281.5813 15.08857272 97530,6917.828,95.436,540.553,538.832,0.0
53246.0,STARLINK-4131,PAYLOAD,2024-04-25 21:28:49,15.08851043,0.0001365,53.2192,29.3076,104.102,256.0124,0.0015619,0.00024665,0.0,0 STARLINK-4131,1 53246U 22086E   24116.89501433  .00024665  00000-0  15619-2 0  9992,2 53246  53.2192  29.3076 0001365 104.1020 256.0124 15.08851043 97667,6917.847,95.437,540.656,538.767,0.0
53246.0,STARLINK-4131,PAYLOAD,2024-04-26 00:39:35,15.08852958,0.0001268,53.2185,28.7125,104.142,255.9713,0.0015625,0.00024675,0.0,0 STARLINK-4131,1 53246U 22086E   24117.02749301  .00024675  00000-0  15625-2 0  9994,2 53246  53.2185  28.7125 0001268 104.1420 255.9713 15.08852958 97076,6917.841,95.437,540.583,538.829,0.0
53246.0,STARLINK-4131,PAYLOAD,2024-04-27 03:41:08,15.08871238,0.0001426,53.218,23.6533,76.8532,283.262,0.0015424,0.00024366,0.0,0 STARLINK-4131,1 53246U 22086E   24118.15356739  .00024366  00000-0  15424-2 0  9992,2 53246  53.2180  23.6533 0001426  76.8532 283.2620 15.08871238 97852,6917.785,95.436,540.636,538.663,0.0
53246.0,STARLINK-4131,PAYLOAD,2024-04-27 21:10:23,15.08834316,0.0001427,53.2181,20.3844,98.215,261.9004,-9.5672e-05,-1.81e-05,0.0,0 STARLINK-4131,1 53246U 22086E   24118.88221296 -.00001810  00000-0 -95672-4 0  9997,2 53246  53.2181  20.3844 0001427  98.2150 261.9004 15.08834316 97964,6917.898,95.438,540.75,538.776,0.0
53246.0,STARLINK-4131,PAYLOAD,2024-04-28 09:53:28,15.08843185,0.0001227,53.2172,18.0063,99.1451,260.968,0.00062072,9.605e-05,0.0,0 STARLINK-4131,1 53246U 22086E   24119.41213345  .00009605  00000-0  62072-3 0  9998,2 53246  53.2172  18.0063 0001227  99.1451 260.9680 15.08843185 97438,6917.871,95.437,540.584,538.887,0.0
53246.0,STARLINK-4131,PAYLOAD,2024-04-28 22:36:33,15.08828148,0.0001561,53.218,15.6259,83.1498,276.9672,0.00017747,2.537e-05,0.0,0 STARLINK-4131,1 53246U 22086E   24119.94206009  .00002537  00000-0  17747-3 0  9991,2 53246  53.2180  15.6259 0001561  83.1498 276.9672 15.08828148 97511,6917.917,95.438,540.862,538.702,0.0
53246.0,STARLINK-4131,PAYLOAD,2024-04-29 01:47:20,15.08834394,0.0001606,53.219,15.0322,99.0193,261.0981,0.00045329,6.932e-05,0.0,0 STARLINK-4131,1 53246U 22086E   24120.07453897  .00006932  00000-0  45329-3 0  9996,2 53246  53.2190  15.0322 0001606  99.0193 261.0981 15.08834394 98143,6917.898,95.438,540.874,538.652,0.0
53246.0,STARLINK-4131,PAYLOAD,2024-04-29 09:44:16,15.08831269,0.0001556,53.2196,13.547,98.2044,261.9125,0.00024912,3.678e-05,0.0,0 STARLINK-4131,1 53246U 22086E   24120.40574276  .00003678  00000-0  24912-3 0  9997,2 53246  53.2196  13.5470 0001556  98.2044 261.9125 15.08831269 97580,6917.907,95.438,540.849,538.696,0.0
53246.0,STARLINK-4131,PAYLOAD,2024-04-29 22:27:21,15.0883726,0.0001314,53.218,11.1683,99.4547,260.6594,0.00026459,3.925e-05,0.0,0 STARLINK-4131,1 53246U 22086E   24120.93566326  .00003925  00000-0  26459-3 0  9995,2 53246  53.2180  11.1683 0001314  99.4547 260.6594 15.08837260 97668,6917.889,95.438,540.663,538.845,0.0
53246.0,STARLINK-4131,PAYLOAD,2024-04-30 01:38:07,15.08840942,0.0001595,53.2191,10.5713,89.7162,270.4013,0.00042871,6.542e-05,0.0,0 STARLINK-4131,1 53246U 22086E   24121.06814364  .00006542  00000-0  42871-3 0  9992,2 53246  53.2191  10.5713 0001595  89.7162 270.4013 15.08840942 98299,6917.878,95.437,540.846,538.639,0.0
53246.0,STARLINK-4131,PAYLOAD,2024-04-30 09:35:03,15.08845122,0.0001586,53.2192,9.0843,88.7297,271.3877,0.00034638,5.23e-05,0.0,0 STARLINK-4131,1 53246U 22086E   24121.39934229  .00005230  00000-0  34638-3 0  9996,2 53246  53.2192   9.0843 0001586  88.7297 271.3877 15.08845122 97736,6917.865,95.437,540.827,538.633,0.0
53246.0,STARLINK-4131,PAYLOAD,2024-04-30 20:42:45,15.08835511,0.0001911,53.2178,7.0054,89.9789,270.1422,6.0147e-05,6.69e-06,0.0,0 STARLINK-4131,1 53246U 22086E   24121.86302674  .00000669  00000-0  60147-4 0  9997,2 53246  53.2178   7.0054 0001911  89.9789 270.1422 15.08835511 98413,6917.894,95.438,541.081,538.437,0.0
53246.0,STARLINK-4131,PAYLOAD,2024-05-01 09:25:50,15.08842115,0.0001339,53.2193,4.6241,90.0176,270.0969,0.00018594,2.673e-05,0.0,0 STARLINK-4131,1 53246U 22086E   24122.39294607  .00002673  00000-0  18594-3 0  9997,2 53246  53.2193   4.6241 0001339  90.0176 270.0969 15.08842115 97881,6917.874,95.437,540.665,538.813,0.0
53246.0,STARLINK-4131,PAYLOAD,2024-05-01 22:08:55,15.08848575,7.49e-05,53.2175,2.2455,92.5661,267.5417,0.00024028,3.539e-05,0.0,0 STARLINK-4131,1 53246U 22086E   24122.92286051  .00003539  00000-0  24028-3 0  9991,2 53246  53.2175   2.2455 0000749  92.5661 267.5417 15.08848575 97966,6917.854,95.437,540.237,539.201,0.0
53246.0,STARLINK-4131,PAYLOAD,2024-05-02 01:19:40,15.08864849,0.0001442,53.2179,1.6515,86.3296,273.7861,0.00039281,5.973e-05,0.0,0 STARLINK-4131,1 53246U 22086E   24123.05533284  .00005973  00000-0  39281-3 0  9990,2 53246  53.2179   1.6515 0001442  86.3296 273.7861 15.08864849 98590,6917.804,95.436,540.667,538.672,0.0
53246.0,STARLINK-4131,PAYLOAD,2024-05-02 09:16:36,15.08850915,0.0001312,53.2171,0.1625,102.5885,257.5253,0.00022131,3.237e-05,0.0,0 STARLINK-4131,1 53246U 22086E   24123.38653669  .00003237  00000-0  22131-3 0  9993,2 53246  53.2171   0.1625 0001312 102.5885 257.5253 15.08850915 98649,6917.847,95.437,540.62,538.804,0.0
53246.0,STARLINK-4131,PAYLOAD,2024-05-02 20:24:18,15.08847514,0.0001862,53.2165,358.0812,98.5725,261.5478,0.00018359,2.636e-05,0.0,0 STARLINK-4131,1 53246U 22086E   24123.85021955  .00002636  00000-0  18359-3 0  9991,2 53246  53.2165 358.0812 0001862  98.5725 261.5478 15.08847514 98715,6917.857,95.437,541.011,538.434,0.0
53246.0,STARLINK-4131,PAYLOAD,2024-05-03 09:07:24,15.08839634,0.0001796,53.2165,355.7045,82.8358,277.2838,-3.9557e-05,-9.18e-06,0.0,0 STARLINK-4131,1 53246U 22086E   24124.38014120 -.00000918  00000-0 -39557-4 0  9993,2 53246  53.2165 355.7045 0001796  82.8358 277.2838 15.08839634 98797,6917.882,95.438,540.989,538.504,0.0
53246.0,STARLINK-4131,PAYLOAD,2024-05-03 21:50:29,15.08834034,0.0001378,53.2183,353.3253,89.9252,270.1898,-0.00015614,-2.772e-05,0.0,0 STARLINK-4131,1 53246U 22086E   24124.91006320 -.00002772  00000-0 -15614-3 0  9992,2 53246  53.2183 353.3253 0001378  89.9252 270.1898 15.08834034 98268,6917.899,95.438,540.717,538.81,0.0
53246.0,STARLINK-4131,PAYLOAD,2024-05-04 20:05:53,15.08843732,0.0001392,53.2183,349.1626,91.9391,268.176,0.00031178,4.678e-05,0.0,0 STARLINK-4131,1 53246U 22086E   24125.83742447  .00004678  00000-0  31178-3 0  9999,2 53246  53.2183 349.1626 0001392  91.9391 268.1760 15.08843732 99012,6917.869,95.437,540.697,538.771,0.0
53246.0,STARLINK-4131,PAYLOAD,2024-05-05 15:10:31,15.08847663,0.0001384,53.2178,345.5934,89.6844,270.4306,0.00037247,5.646e-05,0.0,0 STARLINK-4131,1 53246U 22086E   24126.63230370  .00005646  00000-0  37247-3 0  9994,2 53246  53.2178 345.5934 0001384  89.6844 270.4306 15.08847663 98520,6917.857,95.437,540.679,538.765,0.0
53246.0,STARLINK-4131,PAYLOAD,2024-05-05 21:32:03,15.08856281,0.0001334,53.2173,344.4044,88.5825,271.532,0.00047846,7.338e-05,0.0,0 STARLINK-4131,1 53246U 22086E   24126.89725992  .00007338  00000-0  47846-3 0  9997,2 53246  53.2173 344.4044 0001334  88.5825 271.5320 15.08856281 99173,6917.831,95.437,540.618,538.773,0.0
53246.0,STARLINK-4131,PAYLOAD,2024-05-06 07:04:21,15.08856005,0.0001204,53.2156,342.6188,81.9273,278.1856,0.00034338,5.184e-05,0.0,0 STARLINK-4131,1 53246U 22086E   24127.29469664  .00005184  00000-0  34338-3 0  9992,2 53246  53.2156 342.6188 0001204  81.9273 278.1856 15.08856005 98623,6917.831,95.437,540.529,538.864,0.0
53246.0,STARLINK-4131,PAYLOAD,2024-05-06 21:22:50,15.08847583,0.0001331,53.2177,339.9459,94.7554,265.359,0.00010549,1.392e-05,0.0,0 STARLINK-4131,1 53246U 22086E   24127.89085744  .00001392  00000-0  10549-3 0  9996,2 53246  53.2177 339.9459 0001331  94.7554 265.3590 15.08847583 99323,6917.857,95.437,540.643,538.801,0.0
53246.0,STARLINK-4131,PAYLOAD,2024-05-07 13:16:41,15.08839547,0.0001295,53.2173,336.972,94.6775,265.4366,-5.2674e-05,-1.126e-05,0.0,0 STARLINK-4131,1 53246U 22086E   24128.55326070 -.00001126  00000-0 -52674-4 0  9993,2 53246  53.2173 336.9720 0001295  94.6775 265.4366 15.08839547 99424,6917.882,95.438,540.643,538.851,0.0
53246.0,STARLINK-4131,PAYLOAD,2024-05-07 21:13:37,15.08836005,0.0001383,53.2182,335.485,90.3145,269.8006,-7.1741e-05,-1.429e-05,0.0,0 STARLINK-4131,1 53246U 22086E   24128.88446341 -.00001429  00000-0 -71741-4 0  9995,2 53246  53.2182 335.4850 0001383  90.3145 269.8006 15.08836005 98866,6917.893,95.438,540.714,538.801,0.0
53246.0,STARLINK-4131,PAYLOAD,2024-05-08 06:45:56,15.08838568,0.0001288,53.2174,333.6992,88.9134,271.2005,-4.0875e-05,-9.38e-06,0.0,0 STARLINK-4131,1 53246U 22086E   24129.28190350 -.00000938  00000-0 -40875-4 0  9994,2 53246  53.2174 333.6992 0001288  88.9134 271.2005 15.08838568 98928,6917.885,95.438,540.641,538.859,0.0
